STARLINK-2354
1 27894C 21021AL  21325.06947200  .00000934  00000-0  62564-4 0  3255
2 27894  53.0548 117.9184 0001580  82.5904 308.0781 15.06408028    14
